[{"OBJECT_NAME":"STARLINK-36221","OBJECT_ID":"2025-304Z","EPOCH":"2026-03-09T16:54:19.604448","MEAN_MOTION":14.98316025,"ECCENTRICITY":0.00041576,"INCLINATION":70.0026,"RA_OF_ASC_NODE":174.5449,"ARG_OF_PERICENTER":274.6212,"MEAN_ANOMALY":85.4472,"EPHEMERIS_TYPE":0,"CLASSIFICATION_TYPE":"U","NORAD_CAT_ID":67215,"ELEMENT_SET_NO":999,"REV_AT_EPOCH":1388,"BSTAR":-0.00041268394,"MEAN_MOTION_DOT":-5.012e-5,"MEAN_MOTION_DDOT":0},{"OBJECT_NAME":"COSMOS 252 DEB","OBJECT_ID":"1968-097K","EPOCH":"2026-03-09T13:34:29.447904","MEAN_MOTION":13.24278739,"ECCENTRICITY":0.0818133,"INCLINATION":62.3155,"RA_OF_ASC_NODE":160.5086,"ARG_OF_PERICENTER":227.9073,"MEAN_ANOMALY":124.9536,"EPHEMERIS_TYPE":0,"CLASSIFICATION_TYPE":"U","NORAD_CAT_ID":3557,"ELEMENT_SET_NO":999,"REV_AT_EPOCH":74101,"BSTAR":0.00049463,"MEAN_MOTION_DOT":1.259e-5,"MEAN_MOTION_DDOT":0}]
